{"type": "FeatureCollection", "features": [ {"type": "Feature", "properties": {"norad_id": 38064, "name": "COSMOS 2251 DEB", "group": "cosmos-2251-debris", "lat": 26.141477667113136, "lon": -45.11037540882956, "alt_km": 716.5182587783129, "timestamp": "2025-12-02T19:35:50.952675+00:00", "meta": {"OBJECT_NAME": "COSMOS 2251 DEB", "OBJECT_ID": "1993-036BRW", "EPOCH": "2025-12-02T10:38:59.788320", "MEAN_MOTION": 14.5615683, "ECCENTRICITY": 0.0047563, "INCLINATION": 74.0206, "RA_OF_ASC_NODE": 143.6816, "ARG_OF_PERICENTER": 264.8725, "MEAN_ANOMALY": 94.7009, "EPHEMERIS_TYPE": 0, "CLASSIFICATION_TYPE": "U", "NORAD_CAT_ID": 38064, "ELEMENT_SET_NO": 999, "REV_AT_EPOCH": 71715, "BSTAR": 0.0011547, "MEAN_MOTION_DOT": 5.15e-05, "MEAN_MOTION_DDOT": 0}, "tle": {"line1": "1 38064U 93036BRW 25336.44374755  .00005150  00000+0  11547-2 0  9990", "line2": "2 38064  74.0206 143.6816 0047563 264.8725  94.7009 14.56156830717159"}}, "geometry": {"type": "Point", "coordinates": [-45.11037540882956, 26.141477667113136]}}, {"type": "Feature", "properties": {"norad_id": 38067, "name": "COSMOS 2251 DEB", "group": "cosmos-2251-debris", "lat": -39.077056204959895, "lon": -79.96014448168143, "alt_km": 723.6848927701285, "timestamp": "2025-12-02T19:35:50.952685+00:00", "meta": {"OBJECT_NAME": "COSMOS 2251 DEB", "OBJECT_ID": "1993-036BRZ", "EPOCH": "2025-11-29T04:46:36.876288", "MEAN_MOTION": 14.61044936, "ECCENTRICITY": 0.00691529, "INCLINATION": 74.017, "RA_OF_ASC_NODE": 300.4181, "ARG_OF_PERICENTER": 91.9303, "MEAN_ANOMALY": 288.2542, "EPHEMERIS_TYPE": 0, "CLASSIFICATION_TYPE": "U", "NORAD_CAT_ID": 38067, "ELEMENT_SET_NO": 999, "REV_AT_EPOCH": 62358, "BSTAR": 0.00037425936, "MEAN_MOTION_DOT": 1.87e-05, "MEAN_MOTION_DDOT": 0}, "tle": {"line1": "1 38067U 93036BRZ 25333.19903792  .00001870  00000+0  37426-3 0  9991", "line2": "2 38067  74.0170 300.4181 0069152  91.9303 288.2542 14.61044936623583"}}, "geometry": {"type": "Point", "coordinates": [-79.96014448168143, -39.077056204959895]}}, {"type": "Feature", "properties": {"norad_id": 38068, "name": "COSMOS 2251 DEB", "group": "cosmos-2251-debris", "lat": -71.11015401779429, "lon": -156.66489380652533, "alt_km": 794.7656467698353, "timestamp": "2025-12-02T19:35:50.952696+00:00", "meta": {"OBJECT_NAME": "COSMOS 2251 DEB", "OBJECT_ID": "1993-036BSA", "EPOCH": "2025-11-26T00:12:22.263264", "MEAN_MOTION": 14.35960004, "ECCENTRICITY": 0.00240903, "INCLINATION": 74.0219, "RA_OF_ASC_NODE": 338.9788, "ARG_OF_PERICENTER": 72.1007, "MEAN_ANOMALY": 288.2769, "EPHEMERIS_TYPE": 0, "CLASSIFICATION_TYPE": "U", "NORAD_CAT_ID": 38068, "ELEMENT_SET_NO": 999, "REV_AT_EPOCH": 66406, "BSTAR": 0.00028750999, "MEAN_MOTION_DOT": 8.11e-06, "MEAN_MOTION_DDOT": 0}, "tle": {"line1": "1 38068U 93036BSA 25330.00859101  .00000811  00000+0  28751-3 0  9998", "line2": "2 38068  74.0219 338.9788 0024090  72.1007 288.2769 14.35960004664064"}}, "geometry": {"type": "Point", "coordinates": [-156.66489380652533, -71.11015401779429]}}, {"type": "Feature", "properties": {"norad_id": 38197, "name": "COSMOS 2251 DEB", "group": "cosmos-2251-debris", "lat": -10.63144116522771, "lon": 13.42279818149115, "alt_km": 658.727200339591, "timestamp": "2025-12-02T19:35:50.952706+00:00", "meta": {"OBJECT_NAME": "COSMOS 2251 DEB", "OBJECT_ID": "1993-036BSM", "EPOCH": "2025-11-30T20:22:30.930240", "MEAN_MOTION": 14.72855932, "ECCENTRICITY": 0.01292085, "INCLINATION": 73.9391, "RA_OF_ASC_NODE": 20.3775, "ARG_OF_PERICENTER": 260.5427, "MEAN_ANOMALY": 98.1121, "EPHEMERIS_TYPE": 0, "CLASSIFICATION_TYPE": "U", "NORAD_CAT_ID": 38197, "ELEMENT_SET_NO": 999, "REV_AT_EPOCH": 85580, "BSTAR": 0.0048480402, "MEAN_MOTION_DOT": 0.00035581, "MEAN_MOTION_DDOT": 0}, "tle": {"line1": "1 38197U 93036BSM 25334.84896910  .00035581  00000+0  48480-2 0  9998", "line2": "2 38197  73.9391  20.3775 0129208 260.5427  98.1121 14.72855932855808"}}, "geometry": {"type": "Point", "coordinates": [13.42279818149115, -10.63144116522771]}}, {"type": "Feature", "properties": {"norad_id": 38199, "name": "COSMOS 2251 DEB", "group": "cosmos-2251-debris", "lat": 58.94227555041632, "lon": 107.03525211559598, "alt_km": 853.1828837401044, "timestamp": "2025-12-02T19:35:50.952716+00:00", "meta": {"OBJECT_NAME": "COSMOS 2251 DEB", "OBJECT_ID": "1993-036BSP", "EPOCH": "2025-12-01T15:09:45.800640", "MEAN_MOTION": 13.64774241, "ECCENTRICITY": 0.03692427, "INCLINATION": 73.9554, "RA_OF_ASC_NODE": 80.4375, "ARG_OF_PERICENTER": 9.1711, "MEAN_ANOMALY": 351.5903, "EPHEMERIS_TYPE": 0, "CLASSIFICATION_TYPE": "U", "NORAD_CAT_ID": 38199, "ELEMENT_SET_NO": 999, "REV_AT_EPOCH": 60870, "BSTAR": 0.00044539918, "MEAN_MOTION_DOT": 5.49e-06, "MEAN_MOTION_DDOT": 0}, "tle": {"line1": "1 38199U 93036BSP 25335.63178010  .00000549  00000+0  44540-3 0  9992", "line2": "2 38199  73.9554  80.4375 0369242   9.1711 351.5903 13.64774241608703"}}, "geometry": {"type": "Point", "coordinates": [107.03525211559598, 58.94227555041632]}}, {"type": "Feature", "properties": {"norad_id": 38208, "name": "COSMOS 2251 DEB", "group": "cosmos-2251-debris", "lat": -56.44040927096064, "lon": 72.9838654433943, "alt_km": 627.3978561184113, "timestamp": "2025-12-02T19:35:50.952727+00:00", "meta": {"OBJECT_NAME": "COSMOS 2251 DEB", "OBJECT_ID": "1993-036BSY", "EPOCH": "2025-12-01T14:47:33.215424", "MEAN_MOTION": 14.83128009, "ECCENTRICITY": 0.00041446, "INCLINATION": 74.0053, "RA_OF_ASC_NODE": 100.9823, "ARG_OF_PERICENTER": 184.0286, "MEAN_ANOMALY": 190.2464, "EPHEMERIS_TYPE": 0, "CLASSIFICATION_TYPE": "U", "NORAD_CAT_ID": 38208, "ELEMENT_SET_NO": 999, "REV_AT_EPOCH": 70994, "BSTAR": 0.0028439647, "MEAN_MOTION_DOT": 0.00023238, "MEAN_MOTION_DDOT": 0}, "tle": {"line1": "1 38208U 93036BSY 25335.61635666  .00023238  00000+0  28440-2 0  9996", "line2": "2 38208  74.0053 100.9823 0004144 184.0286 190.2464 14.83128009709948"}}, "geometry": {"type": "Point", "coordinates": [72.9838654433943, -56.44040927096064]}}, {"type": "Feature", "properties": {"norad_id": 38212, "name": "COSMOS 2251 DEB", "group": "cosmos-2251-debris", "lat": 70.425562802368, "lon": -137.480571759894, "alt_km": 601.302417273504, "timestamp": "2025-12-02T19:35:50.952737+00:00", "meta": {"OBJECT_NAME": "COSMOS 2251 DEB", "OBJECT_ID": "1993-036BTC", "EPOCH": "2025-11-30T02:08:11.826528", "MEAN_MOTION": 14.77531577, "ECCENTRICITY": 0.00935039, "INCLINATION": 74.0506, "RA_OF_ASC_NODE": 101.4043, "ARG_OF_PERICENTER": 172.1987, "MEAN_ANOMALY": 188.0671, "EPHEMERIS_TYPE": 0, "CLASSIFICATION_TYPE": "U", "NORAD_CAT_ID": 38212, "ELEMENT_SET_NO": 999, "REV_AT_EPOCH": 81123, "BSTAR": 0.000758158, "MEAN_MOTION_DOT": 5.788e-05, "MEAN_MOTION_DDOT": 0}, "tle": {"line1": "1 38212U 93036BTC 25334.08902577  .00005788  00000+0  75816-3 0  9999", "line2": "2 38212  74.0506 101.4043 0093503 172.1987 188.0671 14.77531577811231"}}, "geometry": {"type": "Point", "coordinates": [-137.480571759894, 70.425562802368]}}, {"type": "Feature", "properties": {"norad_id": 38220, "name": "COSMOS 2251 DEB", "group": "cosmos-2251-debris", "lat": 72.55013607535462, "lon": 154.03191743931922, "alt_km": 582.3134206624281, "timestamp": "2025-12-02T19:35:50.952748+00:00", "meta": {"OBJECT_NAME": "COSMOS 2251 DEB", "OBJECT_ID": "1993-036BTL", "EPOCH": "2025-12-01T14:15:24.602400", "MEAN_MOTION": 14.91758234, "ECCENTRICITY": 0.00038438, "INCLINATION": 74.0144, "RA_OF_ASC_NODE": 90.707, "ARG_OF_PERICENTER": 105.3216, "MEAN_ANOMALY": 254.8391, "EPHEMERIS_TYPE": 0, "CLASSIFICATION_TYPE": "U", "NORAD_CAT_ID": 38220, "ELEMENT_SET_NO": 999, "REV_AT_EPOCH": 71204, "BSTAR": 0.0036878, "MEAN_MOTION_DOT": 0.00037337, "MEAN_MOTION_DDOT": 0}, "tle": {"line1": "1 38220U 93036BTL 25335.59403475  .00037337  00000+0  36878-2 0  9997", "line2": "2 38220  74.0144  90.7070 0003843 105.3216 254.8391 14.91758234712046"}}, "geometry": {"type": "Point", "coordinates": [154.03191743931922, 72.55013607535462]}}, {"type": "Feature", "properties": {"norad_id": 38479, "name": "COSMOS 2251 DEB", "group": "cosmos-2251-debris", "lat": -11.050108393237885, "lon": -160.60131657714666, "alt_km": 719.6436452595008, "timestamp": "2025-12-02T19:35:50.952759+00:00", "meta": {"OBJECT_NAME": "COSMOS 2251 DEB", "OBJECT_ID": "1993-036BTP", "EPOCH": "2025-11-15T12:46:06.719808", "MEAN_MOTION": 14.37875238, "ECCENTRICITY": 0.00846922, "INCLINATION": 74.0077, "RA_OF_ASC_NODE": 234.4912, "ARG_OF_PERICENTER": 348.2771, "MEAN_ANOMALY": 195.3627, "EPHEMERIS_TYPE": 0, "CLASSIFICATION_TYPE": "U", "NORAD_CAT_ID": 38479, "ELEMENT_SET_NO": 999, "REV_AT_EPOCH": 64296, "BSTAR": 0.00281077, "MEAN_MOTION_DOT": 8.824e-05, "MEAN_MOTION_DDOT": 0}, "tle": {"line1": "1 38479U 93036BTP 25319.53202222  .00008824  00000+0  28108-2 0  9992", "line2": "2 38479  74.0077 234.4912 0084692 348.2771 195.3627 14.37875238642962"}}, "geometry": {"type": "Point", "coordinates": [-160.60131657714666, -11.050108393237885]}}, {"type": "Feature", "properties": {"norad_id": 38481, "name": "COSMOS 2251 DEB", "group": "cosmos-2251-debris", "lat": 2.1965318546966537, "lon": 25.3407249943797, "alt_km": 774.3241915213293, "timestamp": "2025-12-02T19:35:50.952769+00:00", "meta": {"OBJECT_NAME": "COSMOS 2251 DEB", "OBJECT_ID": "1993-036BTR", "EPOCH": "2025-11-30T21:06:34.190496", "MEAN_MOTION": 13.94733975, "ECCENTRICITY": 0.02337783, "INCLINATION": 73.9329, "RA_OF_ASC_NODE": 28.0528, "ARG_OF_PERICENTER": 330.587, "MEAN_ANOMALY": 28.2266, "EPHEMERIS_TYPE": 0, "CLASSIFICATION_TYPE": "U", "NORAD_CAT_ID": 38481, "ELEMENT_SET_NO": 999, "REV_AT_EPOCH": 58895, "BSTAR": 0.0013592661, "MEAN_MOTION_DOT": 2.261e-05, "MEAN_MOTION_DDOT": 0}, "tle": {"line1": "1 38481U 93036BTR 25334.87956239  .00002261  00000+0  13593-2 0  9994", "line2": "2 38481  73.9329  28.0528 0233778 330.5870  28.2266 13.94733975588952"}}, "geometry": {"type": "Point", "coordinates": [25.3407249943797, 2.1965318546966537]}}]}